{
  "norad_id": 68503,
  "name": "FLYLAB2",
  "history": [
    {
      "epoch": "2026-05-08T20:04:40.268352Z",
      "apogee_km": 599.5548065473176,
      "perigee_km": 592.5290187107339,
      "latitude_deg": 1.789805213513385e-05,
      "longitude_deg": -80.20117488701463,
      "height_km": 602.5740655021951,
      "semi_major_axis_km": 6974.178912629025,
      "eccentricity": 0.0005037,
      "inclination_deg": 97.7549,
      "raan_deg": 87.6294,
      "arg_perigee_deg": 173.7485,
      "mean_anomaly_deg": 186.3797,
      "mean_motion_rev_day": 14.90606928
    },
    {
      "epoch": "2026-05-09T20:14:38.344704Z",
      "apogee_km": 599.6191164220982,
      "perigee_km": 592.4496682307872,
      "latitude_deg": -2.0785915498245062e-05,
      "longitude_deg": -82.69682435701951,
      "height_km": 602.6086031734865,
      "semi_major_axis_km": 6974.171392326442,
      "eccentricity": 0.000514,
      "inclination_deg": 97.755,
      "raan_deg": 88.6182,
      "arg_perigee_deg": 170.4011,
      "mean_anomaly_deg": 189.7306,
      "mean_motion_rev_day": 14.90609339
    },
    {
      "epoch": "2026-05-10T20:24:36.237024Z",
      "apogee_km": 599.6872532507514,
      "perigee_km": 592.3643822920903,
      "latitude_deg": 9.09359874171996e-05,
      "longitude_deg": -85.19162434656373,
      "height_km": 602.6329267197701,
      "semi_major_axis_km": 6974.16281777142,
      "eccentricity": 0.000525,
      "inclination_deg": 97.755,
      "raan_deg": 89.6071,
      "arg_perigee_deg": 167.0256,
      "mean_anomaly_deg": 193.1099,
      "mean_motion_rev_day": 14.90612088
    },
    {
      "epoch": "2026-05-11T20:34:33.979008Z",
      "apogee_km": 599.7465124106202,
      "perigee_km": 592.2897457466088,
      "latitude_deg": -5.182205844450409e-05,
      "longitude_deg": -87.68576083510676,
      "height_km": 602.637885982435,
      "semi_major_axis_km": 6974.155129078615,
      "eccentricity": 0.0005346,
      "inclination_deg": 97.755,
      "raan_deg": 90.596,
      "arg_perigee_deg": 163.8416,
      "mean_anomaly_deg": 196.2973,
      "mean_motion_rev_day": 14.90614553
    },
    {
      "epoch": "2026-05-12T20:44:31.630272Z",
      "apogee_km": 599.7996834313317,
      "perigee_km": 592.220180545647,
      "latitude_deg": -1.4818622120009025e-05,
      "longitude_deg": -90.17954195936703,
      "height_km": 602.622043211273,
      "semi_major_axis_km": 6974.146931988489,
      "eccentricity": 0.0005434,
      "inclination_deg": 97.7552,
      "raan_deg": 91.5849,
      "arg_perigee_deg": 160.574,
      "mean_anomaly_deg": 199.5686,
      "mean_motion_rev_day": 14.90617181
    }
  ]
}